$$SOE
2460147.500000000, A.D. 2023-Jul-22 00:00:00.0000, 7.006994750085346E+07, -4.967762803552722E+08, -9.050028503642470E+06,
2460154.500000000, A.D. 2023-Jul-29 00:00:00.0000, 7.938614650038934E+07, -4.961477258299314E+08, -9.315469082938910E+06,
2460161.500000000, A.D. 2023-Aug-05 00:00:00.0000, 8.867193273154119E+07, -4.953293962181287E+08, -9.577344965045214E+06,
2460168.500000000, A.D. 2023-Aug-12 00:00:00.0000, 9.792390327155466E+07, -4.943224514628448E+08, -9.835572177026451E+06,
2460175.500000000, A.D. 2023-Aug-19 00:00:00.0000, 1.071386945392001E+08, -4.931280931359773E+08, -1.009006850423762E+07,
2460182.500000000, A.D. 2023-Aug-26 00:00:00.0000, 1.163129818962584E+08, -4.917475633392786E+08, -1.034075345820409E+07,
2460189.500000000, A.D. 2023-Sep-02 00:00:00.0000, 1.254434792179876E+08, -4.901821437266170E+08, -1.058754824968386E+07,
2460196.500000000, A.D. 2023-Sep-09 00:00:00.0000, 1.345269384703960E+08, -4.884331546877549E+08, -1.083037577363750E+07,
2460203.500000000, A.D. 2023-Sep-16 00:00:00.0000, 1.435601494641701E+08, -4.865019547505595E+08, -1.106916062625548E+07,
2460210.500000000, A.D. 2023-Sep-23 00:00:00.0000, 1.525399402030995E+08, -4.843899399140017E+08, -1.130382916871557E+07,
2460217.500000000, A.D. 2023-Sep-30 00:00:00.0000, 1.614631774885766E+08, -4.820985417204247E+08, -1.153430950908458E+07,
2460224.500000000, A.D. 2023-Oct-07 00:00:00.0000, 1.703267654271932E+08, -4.796292246084855E+08, -1.176053123069811E+07,
2460231.500000000, A.D. 2023-Oct-14 00:00:00.0000, 1.791276428823514E+08, -4.769834858576636E+08, -1.198242523305416E+07,
2460238.500000000, A.D. 2023-Oct-21 00:00:00.0000, 1.878627831002357E+08, -4.741628565199952E+08, -1.219992385026339E+07,
2460245.500000000, A.D. 2023-Oct-28 00:00:00.0000, 1.965291940874322E+08, -4.711689010783316E+08, -1.241296093149287E+07,
2460252.500000000, A.D. 2023-Nov-04 00:00:00.0000, 2.051239184913236E+08, -4.680032166008915E+08, -1.262147183144680E+07,
2460259.500000000, A.D. 2023-Nov-11 00:00:00.0000, 2.136440331618069E+08, -4.646674319910986E+08, -1.282539337593576E+07,
2460266.500000000, A.D. 2023-Nov-18 00:00:00.0000, 2.220866486147333E+08, -4.611632073960644E+08, -1.302466382767776E+07,
2460273.500000000, A.D. 2023-Nov-25 00:00:00.0000, 2.304489084706789E+08, -4.574922337501298E+08, -1.321922285695824E+07,
2460280.500000000, A.D. 2023-Dec-02 00:00:00.0000, 2.387279888979624E+08, -4.536562324634559E+08, -1.340901152050298E+07,
2460287.500000000, A.D. 2023-Dec-09 00:00:00.0000, 2.469210981386664E+08, -4.496569553132699E+08, -1.359397226044831E+07,
2460294.500000000, A.D. 2023-Dec-16 00:00:00.0000, 2.550254764064633E+08, -4.454961845242175E+08, -1.377404894874483E+07,
2460301.500000000, A.D. 2023-Dec-23 00:00:00.0000, 2.630383965060161E+08, -4.411757323500506E+08, -1.394918695280814E+07,
2460308.500000000, A.D. 2023-Dec-30 00:00:00.0000, 2.709571638345377E+08, -4.366974391073828E+08, -1.411933301382014E+07,
2460315.500000000, A.D. 2024-Jan-06 00:00:00.0000, 2.787791139931491E+08, -4.320631720214167E+08, -1.428443496820953E+07,
2460322.500000000, A.D. 2024-Jan-13 00:00:00.0000, 2.865016111811319E+08, -4.272748266887808E+08, -1.444444175127056E+07,
2460329.500000000, A.D. 2024-Jan-20 00:00:00.0000, 2.941220485978414E+08, -4.223343280717973E+08, -1.459930354335636E+07,
2460336.500000000, A.D. 2024-Jan-27 00:00:00.0000, 3.016378488247419E+08, -4.172436303716637E+08, -1.474897181951842E+07,
2460343.500000000, A.D. 2024-Feb-03 00:00:00.0000, 3.090464637600598E+08, -4.120047167287821E+08, -1.489339934105340E+07,
2460350.500000000, A.D. 2024-Feb-10 00:00:00.0000, 3.163453743842158E+08, -4.066195990408387E+08, -1.503254013841116E+07,
2460357.500000000, A.D. 2024-Feb-17 00:00:00.0000, 3.235320904955074E+08, -4.010903178902510E+08, -1.516634949772054E+07,
2460364.500000000, A.D. 2024-Feb-24 00:00:00.0000, 3.306041504526008E+08, -3.954189425657826E+08, -1.529478395317569E+07,
2460371.500000000, A.D. 2024-Mar-02 00:00:00.0000, 3.375591209535443E+08, -3.896075712103209E+08, -1.541780129075685E+07,
2460378.500000000, A.D. 2024-Mar-09 00:00:00.0000, 3.443945969903412E+08, -3.836583311568636E+08, -1.553536058125272E+07,
2460385.500000000, A.D. 2024-Mar-16 00:00:00.0000, 3.511082023747695E+08, -3.775733792545751E+08, -1.564742226276597E+07,
2460392.500000000, A.D. 2024-Mar-23 00:00:00.0000, 3.576975907323812E+08, -3.713549010753289E+08, -1.575394817255810E+07,
2460399.500000000, A.D. 2024-Mar-30 00:00:00.0000, 3.641604447235607E+08, -3.650051090270000E+08, -1.585490132483865E+07,
2460406.500000000, A.D. 2024-Apr-06 00:00:00.0000, 3.704944737472408E+08, -3.585262427394150E+08, -1.595024573324284E+07,
2460413.500000000, A.D. 2024-Apr-13 00:00:00.0000, 3.766974136790513E+08, -3.519205708841970E+08, -1.603994653544369E+07,
2460420.500000000, A.D. 2024-Apr-20 00:00:00.0000, 3.827670276938155E+08, -3.451903917508800E+08, -1.612397011385906E+07,
2460427.500000000, A.D. 2024-Apr-27 00:00:00.0000, 3.887011066573569E+08, -3.383380331409456E+08, -1.620228411916448E+07,
2460434.500000000, A.D. 2024-May-04 00:00:00.0000, 3.944974691767994E+08, -3.313658522835355E+08, -1.627485746209759E+07,
2460441.500000000, A.D. 2024-May-11 00:00:00.0000, 4.001539615484266E+08, -3.242762358746508E+08, -1.634166030362660E+07,
2460448.500000000, A.D. 2024-May-18 00:00:00.0000, 4.056684576855207E+08, -3.170716002178050E+08, -1.640266404908957E+07,
2460455.500000000, A.D. 2024-May-25 00:00:00.0000, 4.110388590511574E+08, -3.097543914725002E+08, -1.645784134897509E+07,
2460462.500000000, A.D. 2024-Jun-01 00:00:00.0000, 4.162630946558945E+08, -3.023270860668554E+08, -1.650716611633323E+07,
2460469.500000000, A.D. 2024-Jun-08 00:00:00.0000, 4.213391213668787E+08, -2.947921912957993E+08, -1.655061358507612E+07,
2460476.500000000, A.D. 2024-Jun-15 00:00:00.0000, 4.262649249287545E+08, -2.871522455581287E+08, -1.658816040101068E+07,
2460483.500000000, A.D. 2024-Jun-22 00:00:00.0000, 4.310385206928648E+08, -2.794098170565900E+08, -1.661978455706643E+07,
2460490.500000000, A.D. 2024-Jun-29 00:00:00.0000, 4.356579519342161E+08, -2.715675027818931E+08, -1.664546512666221E+07,
2460497.500000000, A.D. 2024-Jul-06 00:00:00.0000, 4.401212884010009E+08, -2.636279302509209E+08, -1.666518223960307E+07,
2460504.500000000, A.D. 2024-Jul-13 00:00:00.0000, 4.444266270462413E+08, -2.555937591734285E+08, -1.667891724839197E+07,
2460511.500000000, A.D. 2024-Jul-20 00:00:00.0000, 4.485720929571549E+08, -2.474676818975983E+08, -1.668665280886801E+07,
2460518.500000000, A.D. 2024-Jul-27 00:00:00.0000, 4.525558398274429E+08, -2.392524235933932E+08, -1.668837289341207E+07,
2460525.500000000, A.D. 2024-Aug-03 00:00:00.0000, 4.563760502463781E+08, -2.309507425480523E+08, -1.668406279247874E+07,
2460532.500000000, A.D. 2024-Aug-10 00:00:00.0000, 4.600309359713004E+08, -2.225654305774042E+08, -1.667370912017691E+07,
2460539.500000000, A.D. 2024-Aug-17 00:00:00.0000, 4.635187382316082E+08, -2.140993135303789E+08, -1.665729982666205E+07,
2460546.500000000, A.D. 2024-Aug-24 00:00:00.0000, 4.668377280926558E+08, -2.055552519079807E+08, -1.663482422195040E+07,
2460553.500000000, A.D. 2024-Aug-31 00:00:00.0000, 4.699862069953772E+08, -1.969361416569771E+08, -1.660627302704863E+07,
2460560.500000000, A.D. 2024-Sep-07 00:00:00.0000, 4.729625078371150E+08, -1.882449150100644E+08, -1.657163847586428E+07,
2460567.500000000, A.D. 2024-Sep-14 00:00:00.0000, 4.757649966797517E+08, -1.794845403742740E+08, -1.653091439453942E+07,
2460574.500000000, A.D. 2024-Sep-21 00:00:00.0000, 4.783920730586589E+08, -1.706580208535529E+08, -1.648409603856704E+07,
2460581.500000000, A.D. 2024-Sep-28 00:00:00.0000, 4.808421684067507E+08, -1.617683946327474E+08, -1.643117990696985E+07,
2460588.500000000, A.D. 2024-Oct-05 00:00:00.0000, 4.831137462636833E+08, -1.528187372200221E+08, -1.637216387023895E+07,
2460595.500000000, A.D. 2024-Oct-12 00:00:00.0000, 4.852053039106780E+08, -1.438121625656717E+08, -1.630704733555935E+07,
2460602.500000000, A.D. 2024-Oct-19 00:00:00.0000, 4.871153736820266E+08, -1.347518233268026E+08, -1.623583131093068E+07,
2460609.500000000, A.D. 2024-Oct-26 00:00:00.0000, 4.888425239227896E+08, -1.256409110782257E+08, -1.615851843075225E+07,
2460616.500000000, A.D. 2024-Nov-02 00:00:00.0000, 4.903853598516700E+08, -1.164826566168612E+08, -1.607511297861388E+07,
2460623.500000000, A.D. 2024-Nov-09 00:00:00.0000, 4.917425244270915E+08, -1.072803303378121E+08, -1.598562091444204E+07,
2460630.500000000, A.D. 2024-Nov-16 00:00:00.0000, 4.929126992434943E+08, -9.803724268069860E+07, -1.589004990830830E+07,
2460637.500000000, A.D. 2024-Nov-23 00:00:00.0000, 4.938946055053120E+08, -8.875674469494414E+07, -1.578840938922725E+07,
2460644.500000000, A.D. 2024-Nov-30 00:00:00.0000, 4.946870052865917E+08, -7.944222876506260E+07, -1.568071063148559E+07,
2460651.500000000, A.D. 2024-Dec-07 00:00:00.0000, 4.952887034947765E+08, -7.009712907256514E+07, -1.556696688252320E+07,
2460658.500000000, A.D. 2024-Dec-14 00:00:00.0000, 4.956985498505276E+08, -6.072492056646546E+07, -1.544719336899578E+07,
2460665.500000000, A.D. 2024-Dec-21 00:00:00.0000, 4.959154385683371E+08, -5.132911767996776E+07, -1.532140706953643E+07,
2460672.500000000, A.D. 2024-Dec-28 00:00:00.0000, 4.959383077133092E+08, -4.191327575927138E+07, -1.518962667752357E+07,
2460679.500000000, A.D. 2025-Jan-04 00:00:00.0000, 4.957661408323910E+08, -3.248099282652005E+07, -1.505187279774597E+07,
2460686.500000000, A.D. 2025-Jan-11 00:00:00.0000, 4.953979690402017E+08, -2.303591001477496E+07, -1.490816807401725E+07,
2460693.500000000, A.D. 2025-Jan-18 00:00:00.0000, 4.948328726441897E+08, -1.358171159176764E+07, -1.475853723844377E+07,
2460700.500000000, A.D. 2025-Jan-25 00:00:00.0000, 4.940699825538133E+08, -4.122125044834145E+06, -1.460300714319029E+07,
2460707.500000000, A.D. 2025-Feb-01 00:00:00.0000, 4.931084816641369E+08, 5.339078745335353E+06, -1.444160679431522E+07,
$$EOE